start=new Date('2023-07-04T00:00:00.000Z').valueOf();
sats=[{"MEAN_ELEMENT_THEORY":"SGP4","NORAD_CAT_ID":"45751","INCLINATION":"53.0553","DECAY_DATE":null,"OBJECT_NAME":"STARLINK-1464","BSTAR":"0.00120130000000","RA_OF_ASC_NODE":"296.0146","APOAPSIS":"547.775","EPHEMERIS_TYPE":"0","TLE_LINE2":"2 45751  53.0553 296.0146 0000933  97.5135 262.5960 15.06427527169889","CLASSIFICATION_TYPE":"U","OBJECT_ID":"2020-038X","OBJECT_TYPE":"PAYLOAD","COUNTRY_CODE":"US","EPOCH":"2023-07-03T16:31:11.871840","CENTER_NAME":"EARTH","MEAN_MOTION_DOT":"0.00017670","PERIAPSIS":"546.483","LAUNCH_DATE":"2020-06-13","MEAN_MOTION_DDOT":"0.0000000000000","MEAN_ANOMALY":"262.5960","SEMIMAJOR_AXIS":"6925.264","ELEMENT_SET_NO":"999","MEAN_MOTION":"15.06427527","ECCENTRICITY":"0.00009330","SITE":"AFETR","PERIOD":"95.590","ARG_OF_PERICENTER":"97.5135","TIME_SYSTEM":"UTC","REF_FRAME":"TEME","GP_ID":"234697360","TLE_LINE1":"1 45751U 20038X   23184.68833185  .00017670  00000-0  12013-2 0  9995","REV_AT_EPOCH":"16988","RCS_SIZE":"LARGE","FILE":"3948747"},{"DECAY_DATE":null,"OBJECT_NAME":"STARLINK-1476","INCLINATION":"53.0546","NORAD_CAT_ID":"45753","MEAN_ELEMENT_THEORY":"SGP4","OBJECT_ID":"2020-038Z","CLASSIFICATION_TYPE":"U","EPHEMERIS_TYPE":"0","TLE_LINE2":"2 45753  53.0546 296.8637 0001157  67.2120 292.8991 15.06415280169853","APOAPSIS":"547.968","RA_OF_ASC_NODE":"296.8637","BSTAR":"0.00112360000000","MEAN_MOTION":"15.06415280","SEMIMAJOR_AXIS":"6925.302","ELEMENT_SET_NO":"999","MEAN_ANOMALY":"292.8991","MEAN_MOTION_DDOT":"0.0000000000000","CENTER_NAME":"EARTH","MEAN_MOTION_DOT":"0.00016501","PERIAPSIS":"546.365","LAUNCH_DATE":"2020-06-13","EPOCH":"2023-07-03T12:00:31.199904","COUNTRY_CODE":"US","OBJECT_TYPE":"PAYLOAD","FILE":"3948347","TLE_LINE1":"1 45753U 20038Z   23184.50036111  .00016501  00000-0  11236-2 0  9990","RCS_SIZE":"LARGE","REV_AT_EPOCH":"16985","GP_ID":"234689439","REF_FRAME":"TEME","SITE":"AFETR","TIME_SYSTEM":"UTC","PERIOD":"95.591","ARG_OF_PERICENTER":"67.2120","ECCENTRICITY":"0.00011570"},{"COUNTRY_CODE":"US","OBJECT_TYPE":"PAYLOAD","CENTER_NAME":"EARTH","MEAN_MOTION_DOT":"0.00015603","LAUNCH_DATE":"2020-06-13","PERIAPSIS":"546.340","EPOCH":"2023-07-03T12:05:49.153632","MEAN_ANOMALY":"260.8078","MEAN_MOTION_DDOT":"0.0000000000000","MEAN_MOTION":"15.06423060","SEMIMAJOR_AXIS":"6925.278","ELEMENT_SET_NO":"999","SITE":"AFETR","ARG_OF_PERICENTER":"99.3042","PERIOD":"95.591","TIME_SYSTEM":"UTC","ECCENTRICITY":"0.00011590","GP_ID":"234689449","REF_FRAME":"TEME","REV_AT_EPOCH":"16970","TLE_LINE1":"1 45754U 20038AA  23184.50404113  .00015603  00000-0  10634-2 0  9995","RCS_SIZE":"LARGE","FILE":"3948348","INCLINATION":"53.0554","NORAD_CAT_ID":"45754","MEAN_ELEMENT_THEORY":"SGP4","DECAY_DATE":null,"OBJECT_NAME":"STARLINK-1477","BSTAR":"0.00106340000000","APOAPSIS":"547.946","RA_OF_ASC_NODE":"296.8429","CLASSIFICATION_TYPE":"U","OBJECT_ID":"2020-038AA","EPHEMERIS_TYPE":"0","TLE_LINE2":"2 45754  53.0554 296.8429 0001159  99.3042 260.8078 15.06423060169703"},{"OBJECT_NAME":"STARLINK-1478","DECAY_DATE":null,"INCLINATION":"53.0547","MEAN_ELEMENT_THEORY":"SGP4","NORAD_CAT_ID":"45755","CLASSIFICATION_TYPE":"U","OBJECT_ID":"2020-038AB","TLE_LINE2":"2 45755  53.0547 296.4652 0001102  76.9946 283.1166 15.06431577169867","EPHEMERIS_TYPE":"0","BSTAR":"0.00111120000000","APOAPSIS":"547.880","RA_OF_ASC_NODE":"296.4652","MEAN_ANOMALY":"283.1166","MEAN_MOTION_DDOT":"0.0000000000000","MEAN_MOTION":"15.06431577","ELEMENT_SET_NO":"999","SEMIMAJOR_AXIS":"6925.252","COUNTRY_CODE":"US","OBJECT_TYPE":"PAYLOAD","PERIAPSIS":"546.354","LAUNCH_DATE":"2020-06-13","CENTER_NAME":"EARTH","MEAN_MOTION_DOT":"0.00016323","EPOCH":"2023-07-03T14:07:54.012576","REV_AT_EPOCH":"16986","TLE_LINE1":"1 45755U 20038AB  23184.58881959  .00016323  00000-0  11112-2 0  9993","RCS_SIZE":"LARGE","FILE":"3948749","PERIOD":"95.590","ARG_OF_PERICENTER":"76.9946","TIME_SYSTEM":"UTC","SITE":"AFETR","ECCENTRICITY":"0.00011020","GP_ID":"234697384","REF_FRAME":"TEME"},{"APOAPSIS":"547.961","RA_OF_ASC_NODE":"298.8542","BSTAR":"0.00118930000000","OBJECT_ID":"2020-038AC","CLASSIFICATION_TYPE":"U","EPHEMERIS_TYPE":"0","TLE_LINE2":"2 45756  53.0548 298.8542 0001108  99.0625 261.0489 15.06406628169782","INCLINATION":"53.0548","MEAN_ELEMENT_THEORY":"SGP4","NORAD_CAT_ID":"45756","DECAY_DATE":null,"OBJECT_NAME":"STARLINK-1484","GP_ID":"234682274","REF_FRAME":"TEME","SITE":"AFETR","ARG_OF_PERICENTER":"99.0625","PERIOD":"95.592","TIME_SYSTEM":"UTC","ECCENTRICITY":"0.00011080","FILE":"3948054","REV_AT_EPOCH":"16978","TLE_LINE1":"1 45756U 20038AC  23184.05341363  .00017481  00000-0  11893-2 0  9998","RCS_SIZE":"LARGE","MEAN_MOTION_DOT":"0.00017481","CENTER_NAME":"EARTH","LAUNCH_DATE":"2020-06-13","PERIAPSIS":"546.426","EPOCH":"2023-07-03T01:16:54.937632","COUNTRY_CODE":"US","OBJECT_TYPE":"PAYLOAD","MEAN_MOTION":"15.06406628","SEMIMAJOR_AXIS":"6925.328","ELEMENT_SET_NO":"999","MEAN_ANOMALY":"261.0489","MEAN_MOTION_DDOT":"0.0000000000000"},{"TLE_LINE2":"2 45757  53.0565 288.6918 0001552 128.1269 231.9866 15.18073332169989","EPHEMERIS_TYPE":"0","CLASSIFICATION_TYPE":"U","OBJECT_ID":"2020-038AD","RA_OF_ASC_NODE":"288.6918","APOAPSIS":"512.735","BSTAR":"0.00175230000000","OBJECT_NAME":"STARLINK-1486","DECAY_DATE":null,"MEAN_ELEMENT_THEORY":"SGP4","NORAD_CAT_ID":"45757","INCLINATION":"53.0565","FILE":"3948753","RCS_SIZE":"LARGE","TLE_LINE1":"1 45757U 20038AD  23184.71064328  .00036007  00000-0  17523-2 0  9996","REV_AT_EPOCH":"16998","REF_FRAME":"TEME","GP_ID":"234696901","ECCENTRICITY":"0.00015520","PERIOD":"94.857","ARG_OF_PERICENTER":"128.1269","TIME_SYSTEM":"UTC","SITE":"AFETR","ELEMENT_SET_NO":"999","SEMIMAJOR_AXIS":"6889.801","MEAN_MOTION":"15.18073332","MEAN_MOTION_DDOT":"0.0000000000000","MEAN_ANOMALY":"231.9866","EPOCH":"2023-07-03T17:03:19.579392","PERIAPSIS":"510.597","LAUNCH_DATE":"2020-06-13","CENTER_NAME":"EARTH","MEAN_MOTION_DOT":"0.00036007","OBJECT_TYPE":"PAYLOAD","COUNTRY_CODE":"US"},{"TLE_LINE2":"2 45758  53.0545 288.7890 0001231 193.9468 166.1493 15.19207165169960","EPHEMERIS_TYPE":"0","OBJECT_ID":"2020-038AE","CLASSIFICATION_TYPE":"U","BSTAR":"0.00146380000000","RA_OF_ASC_NODE":"288.7890","APOAPSIS":"509.085","OBJECT_NAME":"STARLINK-1487","DECAY_DATE":null,"NORAD_CAT_ID":"45758","MEAN_ELEMENT_THEORY":"SGP4","INCLINATION":"53.0545","REV_AT_EPOCH":"16996","TLE_LINE1":"1 45758U 20038AE  23184.47809079  .00031011  00000-0  14638-2 0  9994","RCS_SIZE":"LARGE","FILE":"3948358","ECCENTRICITY":"0.00012310","PERIOD":"94.786","ARG_OF_PERICENTER":"193.9468","TIME_SYSTEM":"UTC","SITE":"AFETR","REF_FRAME":"TEME","GP_ID":"234689829","MEAN_MOTION_DDOT":"0.0000000000000","MEAN_ANOMALY":"166.1493","SEMIMAJOR_AXIS":"6886.372","ELEMENT_SET_NO":"999","MEAN_MOTION":"15.19207165","OBJECT_TYPE":"PAYLOAD","COUNTRY_CODE":"US","EPOCH":"2023-07-03T11:28:27.044256","LAUNCH_DATE":"2020-06-13","PERIAPSIS":"507.390","MEAN_MOTION_DOT":"0.00031011","CENTER_NAME":"EARTH"},{"SEMIMAJOR_AXIS":"6925.276","ELEMENT_SET_NO":"999","MEAN_MOTION":"15.06423733","MEAN_MOTION_DDOT":"0.0000000000000","MEAN_ANOMALY":"259.6727","EPOCH":"2023-07-03T17:03:02.798784","PERIAPSIS":"546.353","LAUNCH_DATE":"2020-06-13","CENTER_NAME":"EARTH","MEAN_MOTION_DOT":"0.00015573","OBJECT_TYPE":"PAYLOAD","COUNTRY_CODE":"US","FILE":"3948809","TLE_LINE1":"1 45759U 20038AF  23184.71044906  .00015573  00000-0  10614-2 0  9997","RCS_SIZE":"LARGE","REV_AT_EPOCH":"16969","REF_FRAME":"TEME","GP_ID":"234698336","ECCENTRICITY":"0.00011380","PERIOD":"95.591","TIME_SYSTEM":"UTC","ARG_OF_PERICENTER":"100.4390","SITE":"AFETR","OBJECT_NAME":"STARLINK-1493","DECAY_DATE":null,"NORAD_CAT_ID":"45759","MEAN_ELEMENT_THEORY":"SGP4","INCLINATION":"53.0548","TLE_LINE2":"2 45759  53.0548 295.9140 0001138 100.4390 259.6727 15.06423733169690","EPHEMERIS_TYPE":"0","OBJECT_ID":"2020-038AF","CLASSIFICATION_TYPE":"U","RA_OF_ASC_NODE":"295.9140","APOAPSIS":"547.929","BSTAR":"0.00106140000000"},{"MEAN_MOTION":"15.06424120","ELEMENT_SET_NO":"999","SEMIMAJOR_AXIS":"6925.275","MEAN_ANOMALY":"260.0700","MEAN_MOTION_DDOT":"0.0000000000000","LAUNCH_DATE":"2020-06-13","PERIAPSIS":"546.320","MEAN_MOTION_DOT":"0.00019594","CENTER_NAME":"EARTH","EPOCH":"2023-07-03T13:57:16.630272","COUNTRY_CODE":"US","OBJECT_TYPE":"PAYLOAD","FILE":"3948753","REV_AT_EPOCH":"16967","TLE_LINE1":"1 45760U 20038AG  23184.58144248  .00019594  00000-0  13298-2 0  9992","RCS_SIZE":"LARGE","GP_ID":"234697397","REF_FRAME":"TEME","TIME_SYSTEM":"UTC","PERIOD":"95.591","ARG_OF_PERICENTER":"100.0423","SITE":"AFETR","ECCENTRICITY":"0.00011830","OBJECT_NAME":"STARLINK-1494","DECAY_DATE":null,"INCLINATION":"53.0544","NORAD_CAT_ID":"45760","MEAN_ELEMENT_THEORY":"SGP4","OBJECT_ID":"2020-038AG","CLASSIFICATION_TYPE":"U","TLE_LINE2":"2 45760  53.0544 296.4987 0001183 100.0423 260.0700 15.06424120169672","EPHEMERIS_TYPE":"0","APOAPSIS":"547.959","RA_OF_ASC_NODE":"296.4987","BSTAR":"0.00132980000000"},{"APOAPSIS":"502.460","RA_OF_ASC_NODE":"275.0914","BSTAR":"0.00023337000000","OBJECT_ID":"2020-038AJ","CLASSIFICATION_TYPE":"U","EPHEMERIS_TYPE":"0","TLE_LINE2":"2 45762  53.0549 275.0914 0002367  79.0687 281.0575 15.21661151169985","INCLINATION":"53.0549","NORAD_CAT_ID":"45762","MEAN_ELEMENT_THEORY":"SGP4","OBJECT_NAME":"STARLINK-1499","DECAY_DATE":null,"GP_ID":"234689735","REF_FRAME":"TEME","SITE":"AFETR","TIME_SYSTEM":"UTC","PERIOD":"94.633","ARG_OF_PERICENTER":"79.0687","ECCENTRICITY":"0.00023670","FILE":"3948350","TLE_LINE1":"1 45762U 20038AJ  23184.55708644  .00005018  00000-0  23337-3 0  9999","REV_AT_EPOCH":"16998","RCS_SIZE":"LARGE","MEAN_MOTION_DOT":"0.00005018","CENTER_NAME":"EARTH","PERIAPSIS":"499.203","LAUNCH_DATE":"2020-06-13","EPOCH":"2023-07-03T13:22:12.268416","COUNTRY_CODE":"US","OBJECT_TYPE":"PAYLOAD","MEAN_MOTION":"15.21661151","ELEMENT_SET_NO":"999","SEMIMAJOR_AXIS":"6878.967","MEAN_ANOMALY":"281.0575","MEAN_MOTION_DDOT":"0.0000000000000"}];
